[{"OBJECT_NAME":"STARLINK-30282","OBJECT_ID":"2023-144V","EPOCH":"2026-03-09T01:02:17.581056","MEAN_MOTION":15.26729095,"ECCENTRICITY":0.00013584,"INCLINATION":43.001,"RA_OF_ASC_NODE":288.4148,"ARG_OF_PERICENTER":272.5421,"MEAN_ANOMALY":87.5275,"EPHEMERIS_TYPE":0,"CLASSIFICATION_TYPE":"U","NORAD_CAT_ID":57883,"ELEMENT_SET_NO":999,"REV_AT_EPOCH":13754,"BSTAR":0.00041723449,"MEAN_MOTION_DOT":0.00010945,"MEAN_MOTION_DDOT":0},{"OBJECT_NAME":"SL-3 DEB","OBJECT_ID":"1988-032D","EPOCH":"2026-03-09T21:36:49.536576","MEAN_MOTION":15.21301321,"ECCENTRICITY":0.00302448,"INCLINATION":97.5102,"RA_OF_ASC_NODE":52.3226,"ARG_OF_PERICENTER":221.5268,"MEAN_ANOMALY":138.367,"EPHEMERIS_TYPE":0,"CLASSIFICATION_TYPE":"U","NORAD_CAT_ID":25655,"ELEMENT_SET_NO":999,"REV_AT_EPOCH":5124,"BSTAR":0.00031081119,"MEAN_MOTION_DOT":6.967e-5,"MEAN_MOTION_DDOT":0}]
